OBJECT_NAME,OBJECT_ID,EPOCH,MEAN_MOTION,ECCENTRICITY,INCLINATION,RA_OF_ASC_NODE,ARG_OF_PERICENTER,MEAN_ANOMALY,EPHEMERIS_TYPE,CLASSIFICATION_TYPE,NORAD_CAT_ID,ELEMENT_SET_NO,REV_AT_EPOCH,BSTAR,MEAN_MOTION_DOT,MEAN_MOTION_DDOT
ONEWEB-0572,2023-004M,2026-07-04T21:48:34.508736,13.17650117,.00020129,87.9135,2.3396,92.2504,267.8858,0,U,55151,999,16981,.16920299E-3,.79E-6,0
ONEWEB-0573,2023-004N,2026-07-04T20:52:53.878656,13.18686897,.00026751,87.9177,331.9510,104.0107,256.1322,0,U,55152,999,17202,.85034818E-4,.46E-6,0
ONEWEB-0588,2023-004P,2026-07-04T20:43:12.196704,13.18686305,.00023023,87.9176,331.9523,88.7325,271.4071,0,U,55153,999,17202,.37525159E-4,.28E-6,0
ONEWEB-0598,2023-004Q,2026-07-04T18:50:07.450080,13.11415618,.00022896,87.8877,17.5643,104.7763,255.3619,0,U,55154,999,16820,-.11783455E-2,-.405E-5,0
ONEWEB-0599,2023-004R,2026-07-04T17:13:58.121184,13.17650368,.00017476,87.9137,2.3758,97.4643,262.6687,0,U,55155,999,16979,.1898398E-3,.87E-6,0
ONEWEB-0614,2023-004S,2026-07-04T18:42:47.928960,13.11414423,.00018687,87.8875,17.5739,81.5453,278.5887,0,U,55156,999,16814,-.8466472E-3,-.287E-5,0
ONEWEB-0616,2023-004T,2026-07-04T21:53:24.947520,13.17650175,.00012938,87.9138,2.3413,118.1143,242.0119,0,U,55157,999,17003,.13363477E-3,.65E-6,0
ONEWEB-0617,2023-004U,2026-07-04T18:25:43.406400,13.11415366,.00021118,87.8882,17.5683,79.3718,280.7648,0,U,55158,999,16816,.60318406E-3,.226E-5,0
ONEWEB-0618,2023-004V,2026-07-04T21:55:47.997408,15.13310049,.00104392,86.9096,170.4370,215.9694,144.0845,0,U,55159,999,18494,.43946598E-3,.7864E-4,0
ONEWEB-0619,2023-004W,2026-07-04T19:00:53.455968,13.17650084,.00015801,87.9145,2.3471,80.1698,279.9612,0,U,55160,999,16991,-.93761093E-4,-.24E-6,0
ONEWEB-0620,2023-004X,2026-07-04T12:48:47.766816,13.11414731,.00020839,87.8873,17.6223,92.3138,267.8228,0,U,55161,999,16810,.88970474E-3,.328E-5,0
ONEWEB-0621,2023-004Y,2026-07-04T18:57:26.712864,13.11415910,.00018508,87.8887,17.5621,81.1024,279.0313,0,U,55162,999,16811,-.14055748E-2,-.485E-5,0
ONEWEB-0622,2023-004Z,2026-07-04T19:04:46.413696,13.11417265,.00024461,87.8889,17.5636,77.4465,282.6936,0,U,55163,999,16810,-.1269918E-2,-.437E-5,0
ONEWEB-0623,2023-004AA,2026-07-04T18:53:34.937088,13.17647621,.00020413,87.9134,2.3763,68.3846,291.7503,0,U,55164,999,16990,.39608497E-4,.28E-6,0
ONEWEB-0624,2023-004AB,2026-07-04T21:00:32.488128,13.12929547,.0001788,87.8957,347.0645,89.6988,270.4346,0,U,55165,999,17039,-.29811908E-3,-.95E-6,0
ONEWEB-0625,2023-004AC,2026-07-04T18:39:01.125504,13.17650393,.00016852,87.9138,2.3746,92.8267,267.3057,0,U,55166,999,16989,.12600208E-3,.62E-6,0
ONEWEB-0626,2023-004AD,2026-07-04T18:24:27.314784,13.17635830,.00021932,87.9137,2.3764,101.8056,258.3322,0,U,55167,999,16989,-.16279041E-2,-.619E-5,0
ONEWEB-0627,2023-004AE,2026-07-04T21:46:07.118112,13.17647831,.00019479,87.9136,2.3487,76.3879,283.7469,0,U,55168,999,16991,.3687219E-4,.27E-6,0
ONEWEB-0628,2023-004AF,2026-07-04T20:43:12.112032,13.12442503,.00018113,87.8960,347.1380,72.7287,287.4039,0,U,55169,999,17035,-.1139358E-2,-.397E-5,0
ONEWEB-0629,2023-004AG,2026-07-04T17:32:11.849280,13.17650121,.00016369,87.9136,2.3795,83.4997,276.6321,0,U,55170,999,16989,.25999529E-3,.114E-5,0
ONEWEB-0631,2023-004AH,2026-07-04T20:33:29.485728,13.18686384,.00023712,87.9186,331.9213,94.6617,265.4786,0,U,55171,999,17200,.87313206E-4,.47E-6,0
ONEWEB-0709,2023-004AJ,2026-07-04T19:53:37.396320,13.11416283,.00024779,87.8874,17.5657,106.2486,253.8914,0,U,55172,999,16818,.16827459E-2,.609E-5,0
ONEWEB-0710,2023-004AK,2026-07-04T17:52:50.129760,13.17648013,.0001959,87.9136,2.3721,86.3762,273.7593,0,U,55173,999,16989,.42663359E-4,.29E-6,0
ONEWEB-0711,2023-004AL,2026-07-04T19:12:06.024672,13.11417027,.00022374,87.8882,17.5598,71.7194,288.4177,0,U,55174,999,16814,-.12752526E-2,-.439E-5,0
ONEWEB-0713,2023-004AM,2026-07-04T19:38:58.352352,13.11417863,.00020351,87.8885,17.5577,78.3837,281.7520,0,U,55175,999,16813,.11473402E-2,.419E-5,0
ONEWEB-0715,2023-004AN,2026-07-04T19:31:38.474400,13.11417829,.0002451,87.8882,17.5592,96.8844,263.2563,0,U,55176,999,16817,.38862091E-3,.15E-5,0
ONEWEB-0716,2023-004AP,2026-07-04T21:21:48.609216,13.17648013,.00016559,87.9135,2.3459,94.9504,265.1816,0,U,55177,999,16991,-.50768002E-4,-.7E-7,0
ONEWEB-0717,2023-004AQ,2026-07-04T17:18:50.084064,13.17649907,.00022983,87.9146,2.3689,80.4032,279.7359,0,U,55178,999,16994,.14954984E-3,.71E-6,0
ONEWEB-0719,2023-004AR,2026-07-04T17:33:24.675840,13.17650589,.00016708,87.9144,2.3471,89.5962,270.5361,0,U,55179,999,16989,.19847089E-4,.21E-6,0
ONEWEB-0530,2023-029A,2026-07-04T15:58:19.815168,13.20772602,.00020174,87.9185,270.9849,86.2735,273.8629,0,U,55796,999,16345,.9385218E-4,.51E-6,0
