ONEWEB-0572             
1 55151U 23004M   26185.90873274  .00000079  00000+0  16920-3 0  9994
2 55151  87.9135   2.3396 0002012  92.2504 267.8858 13.17650117169813
ONEWEB-0573             
1 55152U 23004N   26185.87006804  .00000046  00000+0  85035-4 0  9996
2 55152  87.9177 331.9510 0002675 104.0107 256.1322 13.18686897172024
ONEWEB-0588             
1 55153U 23004P   26185.86333561  .00000028  00000+0  37525-4 0  9990
2 55153  87.9176 331.9523 0002302  88.7325 271.4071 13.18686305172020
ONEWEB-0598             
1 55154U 23004Q   26185.78480845 -.00000405  00000+0 -11783-2 0  9997
2 55154  87.8877  17.5643 0002289 104.7763 255.3619 13.11415618168201
ONEWEB-0599             
1 55155U 23004R   26185.71803381  .00000087  00000+0  18984-3 0  9990
2 55155  87.9137   2.3758 0001747  97.4643 262.6687 13.17650368169794
ONEWEB-0614             
1 55156U 23004S   26185.77972140 -.00000287  00000+0 -84665-3 0  9990
2 55156  87.8875  17.5739 0001868  81.5453 278.5887 13.11414423168147
ONEWEB-0616             
1 55157U 23004T   26185.91209430  .00000065  00000+0  13363-3 0  9991
2 55157  87.9138   2.3413 0001293 118.1143 242.0119 13.17650175170034
ONEWEB-0617             
1 55158U 23004U   26185.76786350  .00000226  00000+0  60318-3 0  9997
2 55158  87.8882  17.5683 0002111  79.3718 280.7648 13.11415366168165
ONEWEB-0618             
1 55159U 23004V   26185.91374997  .00007864  00000+0  43947-3 0  9999
2 55159  86.9096 170.4370 0010439 215.9694 144.0845 15.13310049184949
ONEWEB-0619             
1 55160U 23004W   26185.79228537 -.00000024  00000+0 -93761-4 0  9998
2 55160  87.9145   2.3471 0001580  80.1698 279.9612 13.17650084169913
ONEWEB-0620             
1 55161U 23004X   26185.53388619  .00000328  00000+0  88970-3 0  9999
2 55161  87.8873  17.6223 0002083  92.3138 267.8228 13.11414731168108
ONEWEB-0621             
1 55162U 23004Y   26185.78989251 -.00000485  00000+0 -14056-2 0  9995
2 55162  87.8887  17.5621 0001850  81.1024 279.0313 13.11415910168117
ONEWEB-0622             
1 55163U 23004Z   26185.79498164 -.00000437  00000+0 -12699-2 0  9993
2 55163  87.8889  17.5636 0002446  77.4465 282.6936 13.11417265168100
ONEWEB-0623             
1 55164U 23004AA  26185.78720992  .00000028  00000+0  39608-4 0  9995
2 55164  87.9134   2.3763 0002041  68.3846 291.7503 13.17647621169908
ONEWEB-0624             
1 55165U 23004AB  26185.87537602 -.00000095  00000+0 -29812-3 0  9991
2 55165  87.8957 347.0645 0001788  89.6988 270.4346 13.12929547170398
ONEWEB-0625             
1 55166U 23004AC  26185.77709636  .00000062  00000+0  12600-3 0  9998
2 55166  87.9138   2.3746 0001685  92.8267 267.3057 13.17650393169898
ONEWEB-0626             
1 55167U 23004AD  26185.76698281 -.00000619  00000+0 -16279-2 0  9996
2 55167  87.9137   2.3764 0002193 101.8056 258.3322 13.17635830169894
ONEWEB-0627             
1 55168U 23004AE  26185.90702683  .00000027  00000+0  36872-4 0  9999
2 55168  87.9136   2.3487 0001947  76.3879 283.7469 13.17647831169912
ONEWEB-0628             
1 55169U 23004AF  26185.86333463 -.00000397  00000+0 -11394-2 0  9993
2 55169  87.8960 347.1380 0001811  72.7287 287.4039 13.12442503170350
ONEWEB-0629             
1 55170U 23004AG  26185.73069270  .00000114  00000+0  26000-3 0  9999
2 55170  87.9136   2.3795 0001636  83.4997 276.6321 13.17650121169893
ONEWEB-0631             
1 55171U 23004AH  26185.85659127  .00000047  00000+0  87313-4 0  9999
2 55171  87.9186 331.9213 0002371  94.6617 265.4786 13.18686384172004
ONEWEB-0709             
1 55172U 23004AJ  26185.82890505  .00000609  00000+0  16827-2 0  9998
2 55172  87.8874  17.5657 0002477 106.2486 253.8914 13.11416283168188
ONEWEB-0710             
1 55173U 23004AK  26185.74502465  .00000029  00000+0  42663-4 0  9990
2 55173  87.9136   2.3721 0001959  86.3762 273.7593 13.17648013169891
ONEWEB-0711             
1 55174U 23004AL  26185.80006973 -.00000439  00000+0 -12753-2 0  9993
2 55174  87.8882  17.5598 0002237  71.7194 288.4177 13.11417027168147
ONEWEB-0713             
1 55175U 23004AM  26185.81873093  .00000419  00000+0  11473-2 0  9994
2 55175  87.8885  17.5577 0002035  78.3837 281.7520 13.11417863168136
ONEWEB-0715             
1 55176U 23004AN  26185.81363975  .00000150  00000+0  38862-3 0  9992
2 55176  87.8882  17.5592 0002451  96.8844 263.2563 13.11417829168174
ONEWEB-0716             
1 55177U 23004AP  26185.89014594 -.00000007  00000+0 -50768-4 0  9994
2 55177  87.9135   2.3459 0001655  94.9504 265.1816 13.17648013169910
ONEWEB-0717             
1 55178U 23004AQ  26185.72141301  .00000071  00000+0  14955-3 0  9990
2 55178  87.9146   2.3689 0002298  80.4032 279.7359 13.17649907169947
ONEWEB-0719             
1 55179U 23004AR  26185.73153560  .00000021  00000+0  19847-4 0  9993
2 55179  87.9144   2.3471 0001670  89.5962 270.5361 13.17650589169894
ONEWEB-0530             
1 55796U 23029A   26185.66550712  .00000051  00000+0  93852-4 0  9998
2 55796  87.9185 270.9849 0002017  86.2735 273.8629 13.20772602163458
